O3B MPOWER F1           
1 54755U 22174A   23179.52022640 -.00000010  00000+0  00000+0 0  9995
2 54755   0.0377   7.8049 0002216 173.7909 148.4527  5.00112243 11089
